NORAD_CAT_ID,OBJECT_NAME,OBJECT_TYPE,EPOCH,MEAN_MOTION,ECCENTRICITY,INCLINATION,RA_OF_ASC_NODE,ARG_OF_PERICENTER,MEAN_ANOMALY,BSTAR,MEAN_MOTION_DOT,MEAN_MOTION_DDOT,TLE_LINE0,TLE_LINE1,TLE_LINE2,SEMIMAJOR_AXIS,PERIOD,APOGEE,PERIGEE,DECAYED
49744.0,STARLINK-3231,PAYLOAD,2023-10-16 12:44:07,15.08841642,0.0001398,53.216,117.7559,85.7056,274.4096,0.0001349,1.86e-05,0.0,0 STARLINK-3231,1 49744U 21115W   23289.53064521  .00001860  00000-0  13490-3 0  9993,2 49744  53.2160 117.7559 0001398  85.7056 274.4096 15.08841642103414,6917.875,95.437,540.707,538.773,0.0
49744.0,STARLINK-3231,PAYLOAD,2023-10-16 17:30:16,15.0884541,0.0001316,53.216,116.8644,84.2575,275.8567,0.00017189,2.449e-05,0.0,0 STARLINK-3231,1 49744U 21115W   23289.72936213  .00002449  00000-0  17189-3 0  9993,2 49744  53.2160 116.8644 0001316  84.2575 275.8567 15.08845410103447,6917.864,95.437,540.639,538.818,0.0
49744.0,STARLINK-3231,PAYLOAD,2023-10-17 12:34:54,15.08841723,0.0001313,53.2158,113.296,80.9755,279.1385,0.00016202,2.292e-05,0.0,0 STARLINK-3231,1 49744U 21115W   23290.52424473  .00002292  00000-0  16202-3 0  9994,2 49744  53.2158 113.2960 0001313  80.9755 279.1385 15.08841723104670,6917.875,95.437,540.648,538.832,0.0
49744.0,STARLINK-3231,PAYLOAD,2023-10-17 18:56:27,15.08840927,0.000133,53.2159,112.1062,84.0926,276.0218,0.00018742,2.696e-05,0.0,0 STARLINK-3231,1 49744U 21115W   23290.78920513  .00002696  00000-0  18742-3 0  9997,2 49744  53.2159 112.1062 0001330  84.0926 276.0218 15.08840927103604,6917.878,95.437,540.663,538.822,0.0
49744.0,STARLINK-3231,PAYLOAD,2023-10-18 15:36:28,15.0884092,0.0001241,53.2157,108.241,85.1899,274.9235,2.3344e-05,8.4e-07,0.0,0 STARLINK-3231,1 49744U 21115W   23291.65032680  .00000084  00000-0  23344-4 0  9997,2 49744  53.2157 108.2410 0001241  85.1899 274.9235 15.08840920104843,6917.878,95.437,540.601,538.884,0.0
49744.0,STARLINK-3231,PAYLOAD,2023-10-19 04:19:30,15.08872056,0.0001096,53.2177,105.861,61.4582,298.652,0.00030328,4.546e-05,0.0,0 STARLINK-3231,1 49744U 21115W   23292.18021387  .00004546  00000-0  30328-3 0  9994,2 49744  53.2177 105.8610 0001096  61.4582 298.6520 15.08872056104928,6917.782,95.436,540.406,538.889,0.0
49744.0,STARLINK-3231,PAYLOAD,2023-10-19 12:16:28,15.08830954,0.0001074,53.2151,104.376,90.4267,269.6849,-2.7242e-05,-7.21e-06,0.0,0 STARLINK-3231,1 49744U 21115W   23292.51144623 -.00000721  00000-0 -27242-4 0  9995,2 49744  53.2151 104.3760 0001074  90.4267 269.6849 15.08830954104976,6917.908,95.438,540.516,539.03,0.0
49744.0,STARLINK-3231,PAYLOAD,2023-10-19 21:48:47,15.08835579,0.0001288,53.2151,102.5919,95.1432,264.9707,6.0196e-06,-1.92e-06,0.0,0 STARLINK-3231,1 49744U 21115W   23292.90888327 -.00000192  00000-0  60196-5 0  9991,2 49744  53.2151 102.5919 0001288  95.1432 264.9707 15.08835579103928,6917.894,95.438,540.65,538.868,0.0
49744.0,STARLINK-3231,PAYLOAD,2023-10-20 04:10:20,15.08831387,0.0001661,53.2144,101.4018,95.371,264.7471,1.0403e-05,-1.23e-06,0.0,0 STARLINK-3231,1 49744U 21115W   23293.17384671 -.00000123  00000-0  10403-4 0  9993,2 49744  53.2144 101.4018 0001661  95.3710 264.7471 15.08831387103967,6917.907,95.438,540.921,538.623,0.0
49744.0,STARLINK-3231,PAYLOAD,2023-10-20 20:04:12,15.08827839,0.0001293,53.2154,98.4282,93.3549,266.7591,-2.9422e-05,-7.56e-06,0.0,0 STARLINK-3231,1 49744U 21115W   23293.83625357 -.00000756  00000-0 -29422-4 0  9999,2 49744  53.2154  98.4282 0001293  93.3549 266.7591 15.08827839105172,6917.918,95.438,540.677,538.888,0.0
49744.0,STARLINK-3231,PAYLOAD,2023-10-20 21:39:35,15.08830638,0.0001182,53.2149,98.1308,106.6224,253.4898,-7.4047e-05,-1.466e-05,0.0,0 STARLINK-3231,1 49744U 21115W   23293.90249236 -.00001466  00000-0 -74047-4 0  9997,2 49744  53.2149  98.1308 0001182 106.6224 253.4898 15.08830638104079,6917.909,95.438,540.592,538.956,0.0
49744.0,STARLINK-3231,PAYLOAD,2023-10-21 13:33:25,15.08833735,0.0001187,53.2155,95.157,95.4719,264.6409,0.000212,3.087e-05,0.0,0 STARLINK-3231,1 49744U 21115W   23294.56488350  .00003087  00000-0  21200-3 0  9993,2 49744  53.2155  95.1570 0001187  95.4719 264.6409 15.08833735104177,6917.9,95.438,540.586,538.943,0.0
49744.0,STARLINK-3231,PAYLOAD,2023-10-21 19:54:58,15.08842207,0.0001256,53.2158,93.967,95.1647,264.9488,0.0002172,3.171e-05,0.0,0 STARLINK-3231,1 49744U 21115W   23294.82983920  .00003171  00000-0  21720-3 0  9996,2 49744  53.2158  93.9670 0001256  95.1647 264.9488 15.08842207105323,6917.874,95.437,540.608,538.87,0.0
49744.0,STARLINK-3231,PAYLOAD,2023-10-22 03:51:54,15.08832973,0.0001275,53.2156,92.4808,98.3319,261.7817,0.00013433,1.85e-05,0.0,0 STARLINK-3231,1 49744U 21115W   23295.16104885  .00001850  00000-0  13433-3 0  9993,2 49744  53.2156  92.4808 0001275  98.3319 261.7817 15.08832973105375,6917.902,95.438,540.649,538.885,0.0
49744.0,STARLINK-3231,PAYLOAD,2023-10-22 10:13:27,15.08832816,0.0001277,53.2146,91.2927,97.0466,263.0671,0.00013675,1.889e-05,0.0,0 STARLINK-3231,1 49744U 21115W   23295.42601008  .00001889  00000-0  13675-3 0  9991,2 49744  53.2146  91.2927 0001277  97.0466 263.0671 15.08832816104305,6917.902,95.438,540.651,538.884,0.0
49744.0,STARLINK-3231,PAYLOAD,2023-10-22 18:10:23,15.08834829,0.0001184,53.2158,89.8043,90.7535,269.3592,1.1571e-05,-1.04e-06,0.0,0 STARLINK-3231,1 49744U 21115W   23295.75721182 -.00000104  00000-0  11571-4 0  9997,2 49744  53.2158  89.8043 0001184  90.7535 269.3592 15.08834829104356,6917.896,95.438,540.58,538.942,0.0
49744.0,STARLINK-3231,PAYLOAD,2023-10-23 03:42:41,15.08836955,7.53e-05,53.2159,88.0197,124.504,235.6023,9.882e-05,1.285e-05,0.0,0 STARLINK-3231,1 49744U 21115W   23296.15465006  .00001285  00000-0  98820-4 0  9994,2 49744  53.2159  88.0197 0000753 124.5040 235.6023 15.08836955104410,6917.89,95.438,540.276,539.234,0.0
49744.0,STARLINK-3231,PAYLOAD,2023-10-24 03:33:28,15.08845053,0.0001136,53.216,83.5588,97.7901,262.3221,4.3531e-05,4.05e-06,0.0,0 STARLINK-3231,1 49744U 21115W   23297.14824886  .00000405  00000-0  43531-4 0  9991,2 49744  53.2160  83.5588 0001136  97.7901 262.3221 15.08845053105674,6917.865,95.437,540.516,538.944,0.0
49744.0,STARLINK-3231,PAYLOAD,2023-10-24 09:55:01,15.0883523,0.0001136,53.2169,82.3697,100.9046,259.2074,0.00015244,2.139e-05,0.0,0 STARLINK-3231,1 49744U 21115W   23297.41321425  .00002139  00000-0  15244-3 0  9997,2 49744  53.2169  82.3697 0001136 100.9046 259.2074 15.08835230105710,6917.895,95.438,540.546,538.974,0.0
49744.0,STARLINK-3231,PAYLOAD,2023-10-25 14:31:57,15.08843191,0.0001254,53.2182,77.0179,92.9719,267.1417,8.6247e-05,1.085e-05,0.0,0 STARLINK-3231,1 49744U 21115W   23298.60553128  .00001085  00000-0  86247-4 0  9997,2 49744  53.2182  77.0179 0001254  92.9719 267.1417 15.08843191105892,6917.871,95.437,540.603,538.868,0.0
49744.0,STARLINK-3231,PAYLOAD,2023-10-26 12:47:22,15.08837353,0.0001283,53.2184,72.8547,94.9493,265.1646,4.644e-05,4.51e-06,0.0,0 STARLINK-3231,1 49744U 21115W   23299.53289608  .00000451  00000-0  46440-4 0  9996,2 49744  53.2184  72.8547 0001283  94.9493 265.1646 15.08837353106031,6917.888,95.438,540.641,538.866,0.0
49744.0,STARLINK-3231,PAYLOAD,2023-10-26 14:22:45,15.08830106,0.0001286,53.2183,72.5574,96.0138,264.1,0.00017875,2.557e-05,0.0,0 STARLINK-3231,1 49744U 21115W   23299.59913829  .00002557  00000-0  17875-3 0  9999,2 49744  53.2183  72.5574 0001286  96.0138 264.1000 15.08830106104938,6917.911,95.438,540.665,538.886,0.0
49744.0,STARLINK-3231,PAYLOAD,2023-10-26 15:58:08,15.08840673,0.0001218,53.218,72.2599,88.7429,271.3703,8.5116e-05,1.067e-05,0.0,0 STARLINK-3231,1 49744U 21115W   23299.66537318  .00001067  00000-0  85116-4 0  9991,2 49744  53.2180  72.2599 0001218  88.7429 271.3703 15.08840673104946,6917.878,95.438,540.586,538.901,0.0
49744.0,STARLINK-3231,PAYLOAD,2023-10-27 12:38:08,15.08848418,0.0001253,53.2186,68.3945,90.5059,269.6077,0.00010401,1.368e-05,0.0,0 STARLINK-3231,1 49744U 21115W   23300.52648764  .00001368  00000-0  10401-3 0  9995,2 49744  53.2186  68.3945 0001253  90.5059 269.6077 15.08848418106189,6917.855,95.437,540.586,538.853,0.0
49744.0,STARLINK-3231,PAYLOAD,2023-10-27 15:48:54,15.08854599,0.0001266,53.2187,67.8017,87.9761,272.1377,0.00015029,2.106e-05,0.0,0 STARLINK-3231,1 49744U 21115W   23300.65896211  .00002106  00000-0  15029-3 0  9993,2 49744  53.2187  67.8017 0001266  87.9761 272.1377 15.08854599105096,6917.836,95.437,540.577,538.825,0.0
49744.0,STARLINK-3231,PAYLOAD,2023-10-28 12:28:56,15.08830825,0.0001872,53.2172,63.9327,85.4556,274.6649,-0.00010464,-1.953e-05,0.0,0 STARLINK-3231,1 49744U 21115W   23301.52009903 -.00001953  00000-0 -10464-3 0  9993,2 49744  53.2172  63.9327 0001872  85.4556 274.6649 15.08830825106332,6917.908,95.438,541.068,538.478,0.0
49744.0,STARLINK-3231,PAYLOAD,2023-10-28 14:04:19,15.08828677,0.000187,53.2182,63.6352,89.6322,270.4884,-0.00010417,-1.945e-05,0.0,0 STARLINK-3231,1 49744U 21115W   23301.58634018 -.00001945  00000-0 -10417-3 0  9999,2 49744  53.2182  63.6352 0001870  89.6322 270.4884 15.08828677105238,6917.915,95.438,541.074,538.486,0.0
49744.0,STARLINK-3231,PAYLOAD,2023-10-28 15:39:42,15.0883086,0.0001515,53.2172,63.338,83.8497,276.2667,-9.4335e-05,-1.789e-05,0.0,0 STARLINK-3231,1 49744U 21115W   23301.65257900 -.00001789  00000-0 -94335-4 0  9996,2 49744  53.2172  63.3380 0001515  83.8497 276.2667 15.08830860105241,6917.908,95.438,540.821,538.725,0.0
49744.0,STARLINK-3231,PAYLOAD,2023-10-29 01:12:01,15.08840814,0.0001633,53.2177,61.5548,90.633,269.4849,3.7185e-05,3.04e-06,0.0,0 STARLINK-3231,1 49744U 21115W   23302.05001534  .00000304  00000-0  37185-4 0  9991,2 49744  53.2177  61.5548 0001633  90.6330 269.4849 15.08840814106411,6917.878,95.438,540.873,538.613,0.0
49744.0,STARLINK-3231,PAYLOAD,2023-10-29 13:55:05,15.08860483,0.0001347,53.2173,59.1769,96.0034,264.1112,0.00027703,4.126e-05,0.0,0 STARLINK-3231,1 49744U 21115W   23302.57992339  .00004126  00000-0  27703-3 0  9990,2 49744  53.2173  59.1769 0001347  96.0034 264.1112 15.08860483105382,6917.818,95.436,540.615,538.751,0.0
